{"type": "FeatureCollection", "name": "Boundary_2", "crs": {"type": "name", "properties": {"name": "urn:ogc:def:crs:OGC:1.3:CRS84"}}, "features": [{"type": "Feature", "properties": {"id": "1"}, "geometry": {"type": "MultiPolygon", "coordinates": [[[[75.80835499510599, 26.867640976924566], [75.809998561654, 26.867295849415584], [75.81751109907863, 26.865682729475036], [75.8183773206589, 26.865732219600712], [75.82102864903189, 26.86609540464398], [75.82109982220088, 26.86570463003311], [75.82118950588364, 26.865064596543192], [75.82129486559165, 26.86424224731546], [75.82254420151287, 26.86444140255982], [75.82266522624342, 26.864452480976222], [75.8230841900096, 26.861559787233826], [75.82348133274624, 26.859251029728643], [75.81719251204812, 26.859060253392215], [75.81687828922352, 26.85685267524406], [75.81626789889813, 26.857039573253093], [75.81407096254878, 26.85766464727394], [75.81280259225716, 26.85794511889719], [75.80780358819561, 26.85987791718295], [75.80695844921887, 26.860263306947825], [75.80675769574758, 26.8605046947934], [75.80665731901195, 26.860820055557575], [75.80835499510599, 26.867640976924566]]]]}}]}