{"type": "FeatureCollection", "name": "powerline_6", "crs": {"type": "name", "properties": {"name": "urn:ogc:def:crs:OGC:1.3:CRS84"}}, "features": [{"type": "Feature", "properties": {"id": null}, "geometry": {"type": "MultiLineString", "coordinates": [[[75.81574479799042, 26.861279014438505], [75.81559245931045, 26.861279014438505], [75.81562546602441, 26.862067242169513], [75.81599107885637, 26.86206044712632], [75.81599107885637, 26.86170936934018]]]}}, {"type": "Feature", "properties": {"id": null}, "geometry": {"type": "MultiLineString", "coordinates": [[[75.81599361783435, 26.86194040129623], [75.81624497665631, 26.861929076211343]]]}}, {"type": "Feature", "properties": {"id": null}, "geometry": {"type": "MultiLineString", "coordinates": [[[75.81599615681236, 26.86206044712632], [75.81592252645036, 26.862071772198068], [75.81592252645036, 26.8621487826558], [75.81604185841636, 26.862153312681087], [75.81604693637233, 26.862325453507786], [75.8161408785583, 26.862320923489374]]]}}, {"type": "Feature", "properties": {"id": null}, "geometry": {"type": "MultiLineString", "coordinates": [[[75.8182355354079, 26.86052928698885], [75.81782168199398, 26.860758056314427], [75.81782422097197, 26.860103457705296], [75.81771250593998, 26.860103457705296], [75.81771250593998, 26.860080807166593]]]}}, {"type": "Feature", "properties": {"id": null}, "geometry": {"type": "MultiLineString", "coordinates": [[[75.81782168199398, 26.86043189000687], [75.81756524521603, 26.86043189000687]]]}}, {"type": "Feature", "properties": {"id": null}, "geometry": {"type": "MultiLineString", "coordinates": [[[75.81824295169417, 26.860531435756116], [75.81833298113897, 26.860477891692632], [75.81829922009716, 26.859878865754688], [75.81829171764343, 26.859845400524932], [75.8184230105838, 26.85978516308645], [75.8181941857449, 26.859356807043326]]]}}, {"type": "Feature", "properties": {"id": null}, "geometry": {"type": "MultiLineString", "coordinates": [[[75.81832172745838, 26.860186745403876], [75.8185805621122, 26.860173359349595]]]}}, {"type": "Feature", "properties": {"id": null}, "geometry": {"type": "MultiLineString", "coordinates": [[[75.81823539506856, 26.86047558492364], [75.8182322778313, 26.86030872979631], [75.81802030569675, 26.86030872979631]]]}}, {"type": "Feature", "properties": {"id": null}, "geometry": {"type": "MultiLineString", "coordinates": [[[75.81912564686115, 26.86233543284499], [75.81908440581203, 26.86209935750573], [75.81879915522232, 26.862157609907968], [75.8183455036821, 26.86231090555995], [75.81803275905965, 26.86251938731328], [75.8180155752892, 26.861927666040465], [75.81793996669914, 26.86191846827604]]]}}, {"type": "Feature", "properties": {"id": null}, "geometry": {"type": "MultiLineString", "coordinates": [[[75.819232186238, 26.86235382830528], [75.81920125545118, 26.862019643643553], [75.81950712656543, 26.86201351180567], [75.81993328407293, 26.86205643466385], [75.81995390459747, 26.86173451283056], [75.81996077810565, 26.861636403137318], [75.81996765161385, 26.86117651281602], [75.81932154184443, 26.861164249048528]]]}}, {"type": "Feature", "properties": {"id": null}, "geometry": {"type": "MultiLineString", "coordinates": [[[75.81913595712342, 26.862402882851438], [75.81917032466433, 26.862654287066572], [75.81950025305723, 26.862589903113477], [75.81946244876221, 26.862267982798336], [75.81950712656543, 26.862267982798336]]]}}, {"type": "Feature", "properties": {"id": null}, "geometry": {"type": "MultiLineString", "coordinates": [[[75.81951743682768, 26.862617496240723], [75.81950712656543, 26.8625807054029], [75.81965490699139, 26.862804516147936], [75.81976488312239, 26.862893427142936], [75.81983361820424, 26.862832109222833]]]}}, {"type": "Feature", "properties": {"id": null}, "geometry": {"type": "MultiLineString", "coordinates": [[[75.81992984731885, 26.862059500581665], [75.82012230554801, 26.86212695075264], [75.8202219714167, 26.862393685125653], [75.82044192367866, 26.86251325550249], [75.82044192367866, 26.862657352968185]]]}}, {"type": "Feature", "properties": {"id": null}, "geometry": {"type": "MultiLineString", "coordinates": [[[75.82043848692457, 26.86251325550249], [75.82068249646512, 26.86249792597407], [75.82076841531746, 26.86247339872425], [75.82104335564486, 26.862792252556947], [75.8209849308253, 26.862810647942947]]]}}, {"type": "Feature", "properties": {"id": null}, "geometry": {"type": "MultiLineString", "coordinates": [[[75.81789551494951, 26.86546545234393], [75.818281995131, 26.865509393278803], [75.81829336219518, 26.865472212488875]]]}}, {"type": "Feature", "properties": {"id": null}, "geometry": {"type": "MultiLineString", "coordinates": [[[75.81826683904545, 26.86551953349211], [75.81866089726972, 26.865560094336285], [75.81867605335526, 26.865516153421122]]]}}, {"type": "Feature", "properties": {"id": null}, "geometry": {"type": "MultiLineString", "coordinates": [[[75.81865331922695, 26.86555671426649], [75.81901706528014, 26.865593895028645], [75.8190246433229, 26.86553305377512]]]}}, {"type": "Feature", "properties": {"id": null}, "geometry": {"type": "MultiLineString", "coordinates": [[[75.81900948723735, 26.865590514959866], [75.81930124188416, 26.86566149638307], [75.81931260894832, 26.865583754821994]]]}}, {"type": "Feature", "properties": {"id": null}, "geometry": {"type": "MultiLineString", "coordinates": [[[75.81791067103507, 26.86536067004573], [75.81806980993332, 26.86537419034773], [75.81810012210443, 26.86504970265378], [75.81839187675124, 26.865097023833787], [75.81850933641424, 26.86510378400075], [75.81858511684199, 26.86503618231299], [75.81864574118418, 26.865002381453962]]]}}, {"type": "Feature", "properties": {"id": null}, "geometry": {"type": "MultiLineString", "coordinates": [[[75.81850933641424, 26.86510378400075], [75.81871394356915, 26.865174765729407], [75.81897159702346, 26.865188286053627], [75.8191989383067, 26.865201806376234], [75.81928608579862, 26.86520518645663], [75.81962709772347, 26.865218706777206], [75.81961573065931, 26.8652829282779]]]}}, {"type": "Feature", "properties": {"id": null}, "geometry": {"type": "MultiLineString", "coordinates": [[[75.8196460428304, 26.865238987255047], [75.81981275977145, 26.865245747413528], [75.81981275977145, 26.8652829282779]]]}}, {"type": "Feature", "properties": {"id": null}, "geometry": {"type": "MultiLineString", "coordinates": [[[75.8196460428304, 26.865225466936888], [75.8196763550015, 26.865009141626572], [75.81987717313503, 26.86504970265378]]]}}, {"type": "Feature", "properties": {"id": null}, "geometry": {"type": "MultiLineString", "coordinates": [[[75.81980518172867, 26.865245747413528], [75.82005904616162, 26.86528630835587], [75.82000221084078, 26.865522913563023]]]}}, {"type": "Feature", "properties": {"id": null}, "geometry": {"type": "MultiLineString", "coordinates": [[[75.81027237237825, 26.8614416699719], [75.81008860976905, 26.861471868512194], [75.8101079532016, 26.86153226556858]]]}}, {"type": "Feature", "properties": {"id": null}, "geometry": {"type": "MultiLineString", "coordinates": [[[75.81031105924333, 26.86145029812709], [75.81052867285948, 26.861420099581046], [75.81059153901525, 26.861691886205282], [75.81061571830594, 26.861816994114424], [75.81065440517104, 26.861812680050893]]]}}, {"type": "Feature", "properties": {"id": null}, "geometry": {"type": "MultiLineString", "coordinates": [[[75.81060604658964, 26.861812680050893], [75.81046097084557, 26.861842878492144]]]}}, {"type": "Feature", "properties": {"id": null}, "geometry": {"type": "MultiLineString", "coordinates": [[[75.8110896324033, 26.863081007642332], [75.81152002377743, 26.863003355341338], [75.81150068034489, 26.86289119081245]]]}}, {"type": "Feature", "properties": {"id": null}, "geometry": {"type": "MultiLineString", "coordinates": [[[75.81150551620301, 26.86301198337741], [75.8118875489958, 26.86292570298703], [75.81177632425866, 26.862563324628766]]]}}, {"type": "Feature", "properties": {"id": null}, "geometry": {"type": "MultiLineString", "coordinates": [[[75.81106061725445, 26.863063751580057], [75.81102193038939, 26.8628178524065], [75.81113799098465, 26.862791968251877], [75.81107996068701, 26.86252449830725], [75.81111381169397, 26.862511556197106]]]}}, {"type": "Feature", "properties": {"id": null}, "geometry": {"type": "MultiLineString", "coordinates": [[[75.81095906423361, 26.863098263701986], [75.810867182929, 26.86273588589653]]]}}, {"type": "Feature", "properties": {"id": null}, "geometry": {"type": "MultiLineString", "coordinates": [[[75.81092521322665, 26.862973157209883], [75.81122020057298, 26.862917074944363]]]}}, {"type": "Feature", "properties": {"id": null}, "geometry": {"type": "MultiLineString", "coordinates": [[[75.81088169050342, 26.862796282278058], [75.81122987228923, 26.8627186297816], [75.81121052885668, 26.862671175451975]]]}}, {"type": "Feature", "properties": {"id": null}, "geometry": {"type": "MultiLineString", "coordinates": [[[75.81538387442843, 26.860285491223955], [75.81558698047014, 26.860272548857665], [75.81560148804458, 26.861178510922436], [75.81488578104039, 26.86118282501015], [75.81470201843119, 26.86122596587824], [75.81448440481506, 26.861398529186076], [75.8141845816106, 26.8616185470218], [75.81373484680391, 26.86170051434139], [75.81350272561336, 26.861747969078216], [75.81353657662034, 26.861864448802393]]]}}, {"type": "Feature", "properties": {"id": null}, "geometry": {"type": "MultiLineString", "coordinates": [[[75.81463915227542, 26.86128636306593], [75.81470685428931, 26.861575406303427]]]}}, {"type": "Feature", "properties": {"id": null}, "geometry": {"type": "MultiLineString", "coordinates": [[[75.81534518756335, 26.860268234735237], [75.8153016648401, 26.860285491223955]]]}}, {"type": "Feature", "properties": {"id": null}, "geometry": {"type": "MultiLineString", "coordinates": [[[75.8153258441308, 26.860276862979923], [75.8137880412434, 26.860552966462517], [75.81377836952714, 26.86050982533778]]]}}, {"type": "Feature", "properties": {"id": null}, "geometry": {"type": "MultiLineString", "coordinates": [[[75.81547575573302, 26.860285491223955], [75.81548059159114, 26.860432171271807], [75.81540321786098, 26.860440799503994]]]}}, {"type": "Feature", "properties": {"id": null}, "geometry": {"type": "MultiLineString", "coordinates": [[[75.813560755911, 26.863219056045825], [75.81381705639225, 26.86319748599389]]]}}, {"type": "Feature", "properties": {"id": null}, "geometry": {"type": "MultiLineString", "coordinates": [[[75.81352690490407, 26.86309394968732], [75.81372517508765, 26.863072379611523]]]}}, {"type": "Feature", "properties": {"id": null}, "geometry": {"type": "MultiLineString", "coordinates": [[[75.81137011217521, 26.861200081359357], [75.81131208187756, 26.86122596587824], [75.81138461974963, 26.861553835938068], [75.81122503643114, 26.861588348520655]]]}}, {"type": "Feature", "properties": {"id": null}, "geometry": {"type": "MultiLineString", "coordinates": [[[75.8113797838915, 26.861553835938068], [75.81144265004728, 26.861760911275706], [75.81151518791933, 26.86184719255453], [75.811326589452, 26.861864448802393]]]}}, {"type": "Feature", "properties": {"id": null}, "geometry": {"type": "MultiLineString", "coordinates": [[[75.81112163496613, 26.864515177934784], [75.81109046259341, 26.864365013693842], [75.81077250439164, 26.864428972561576], [75.81073509754435, 26.86421484925353]]]}}, {"type": "Feature", "properties": {"id": null}, "geometry": {"type": "MultiLineString", "coordinates": [[[75.81113098667797, 26.86464865709272], [75.81080367676435, 26.86468758848411], [75.8107662699171, 26.864417849282837]]]}}, {"type": "Feature", "properties": {"id": null}, "geometry": {"type": "MultiLineString", "coordinates": [[[75.81279417917594, 26.864340412315432], [75.81273775888195, 26.864413621537086], [75.81304550594015, 26.864621810002223], [75.81289932608748, 26.864752213570913]]]}}, {"type": "Feature", "properties": {"id": null}, "geometry": {"type": "MultiLineString", "coordinates": [[[75.81282495388177, 26.864303807686827], [75.81299165020496, 26.86418941814611], [75.81306089329307, 26.86426720304639]]]}}, {"type": "Feature", "properties": {"id": null}, "geometry": {"type": "MultiLineString", "coordinates": [[[75.81960103331743, 26.859430059959518], [75.81953661995385, 26.860129770149054], [75.81966544668101, 26.86014329107629]]]}}, {"type": "Feature", "properties": {"id": null}, "geometry": {"type": "MultiLineString", "coordinates": [[[75.81956314310357, 26.859903294377812], [75.8197374380874, 26.859930336284773]]]}}, {"type": "Feature", "properties": {"id": null}, "geometry": {"type": "MultiLineString", "coordinates": [[[75.81968439178796, 26.859430059959518], [75.81968818080934, 26.859619353964383], [75.81999130252031, 26.859656536678113]]]}}, {"type": "Feature", "properties": {"id": null}, "geometry": {"type": "MultiLineString", "coordinates": [[[75.81970712591628, 26.859399637679193], [75.82019212065386, 26.859484143993225]]]}}, {"type": "Feature", "properties": {"id": null}, "geometry": {"type": "MultiLineString", "coordinates": [[[75.82146861581441, 26.862849333079524], [75.82168463289466, 26.862843827170003]]]}}, {"type": "Feature", "properties": {"id": null}, "geometry": {"type": "MultiLineString", "coordinates": [[[75.82141924048179, 26.862843827170003], [75.82124025490101, 26.862827309439815], [75.82127111448389, 26.862552013581748]]]}}, {"type": "Feature", "properties": {"id": null}, "geometry": {"type": "MultiLineString", "coordinates": [[[75.82147478773099, 26.86275573258117], [75.82147478773099, 26.862579543197697]]]}}, {"type": "Feature", "properties": {"id": null}, "geometry": {"type": "MultiLineString", "coordinates": [[[75.82148713156415, 26.862766744408525], [75.82169080481123, 26.862766744408525]]]}}, {"type": "Feature", "properties": {"id": null}, "geometry": {"type": "MultiLineString", "coordinates": [[[75.81571021764678, 26.86573439280628], [75.81659897363406, 26.86558573694681], [75.81648170721907, 26.865090216004134]]]}}, {"type": "Feature", "properties": {"id": null}, "geometry": {"type": "MultiLineString", "coordinates": [[[75.815648498481, 26.865486632931944], [75.81553740398259, 26.864825937280386]]]}}, {"type": "Feature", "properties": {"id": null}, "geometry": {"type": "MultiLineString", "coordinates": [[[75.81560529506493, 26.865503150273792], [75.8150745102392, 26.86557472539389], [75.81500661915683, 26.865183814570717]]]}}, {"type": "Feature", "properties": {"id": null}, "geometry": {"type": "MultiLineString", "coordinates": [[[75.80959384831762, 26.862535495808963], [75.80937783123737, 26.861764663729506], [75.80894579707687, 26.861852759090144]]]}}, {"type": "Feature", "properties": {"id": null}, "geometry": {"type": "MultiLineString", "coordinates": [[[75.80951978531867, 26.86226570517864], [75.80904454774212, 26.862419871331902]]]}}, {"type": "Feature", "properties": {"id": null}, "geometry": {"type": "MultiLineString", "coordinates": [[[75.80939634698709, 26.861775675653337], [75.80932845590475, 26.861516895159887]]]}}, {"type": "Feature", "properties": {"id": null}, "geometry": {"type": "MultiLineString", "coordinates": [[[75.80958767640104, 26.862579543197707], [75.8096185359839, 26.862728203008096], [75.81015549272624, 26.862651120167836], [75.81029127489097, 26.863086086935528], [75.8106554179691, 26.862997992535366], [75.81070479330172, 26.86315215769061]]]}}, {"type": "Feature", "properties": {"id": null}, "geometry": {"type": "MultiLineString", "coordinates": [[[75.81028510297439, 26.8614177875801], [75.81020486805889, 26.861125970313154], [75.81017808909756, 26.861005947505156], [75.80970207571374, 26.861115144203886]]]}}, {"type": "Feature", "properties": {"id": null}, "geometry": {"type": "MultiLineString", "coordinates": [[[75.81113464932596, 26.860423563331786], [75.81088984244286, 26.86046805111746]]]}}, {"type": "Feature", "properties": {"id": null}, "geometry": {"type": "MultiLineString", "coordinates": [[[75.81116638355155, 26.860427607676666], [75.81122985200273, 26.860670268104577], [75.8110575804924, 26.860722844462018]]]}}, {"type": "Feature", "properties": {"id": null}, "geometry": {"type": "MultiLineString", "coordinates": [[[75.81001035104802, 26.859533803944462], [75.81008288642079, 26.859517626436286]]]}}, {"type": "Feature", "properties": {"id": null}, "geometry": {"type": "MultiLineString", "coordinates": [[[75.81011915410717, 26.859517626436286], [75.81019622294075, 26.859497404547806]]]}}, {"type": "Feature", "properties": {"id": null}, "geometry": {"type": "MultiLineString", "coordinates": [[[75.81024155754871, 26.859501448925798], [75.8103095594607, 26.859485271412986]]]}}, {"type": "Feature", "properties": {"id": null}, "geometry": {"type": "MultiLineString", "coordinates": [[[75.80997861682243, 26.859541892697685], [75.8099922172048, 26.859647046436944]]]}}, {"type": "Feature", "properties": {"id": null}, "geometry": {"type": "MultiLineString", "coordinates": [[[75.80874098202452, 26.859922063446756], [75.8087863166325, 26.860051482984755], [75.8087228481813, 26.86008788220314]]]}}, {"type": "Feature", "properties": {"id": null}, "geometry": {"type": "MultiLineString", "coordinates": [[[75.80875911586772, 26.859905885994102], [75.80912179273157, 26.859804776862568]]]}}, {"type": "Feature", "properties": {"id": null}, "geometry": {"type": "MultiLineString", "coordinates": [[[75.81033676022548, 26.859481227034426], [75.8105180986574, 26.859436738860694], [75.8105180986574, 26.859388206287576]]]}}]}