{"type": "FeatureCollection", "name": "Roads_4", "crs": {"type": "name", "properties": {"name": "urn:ogc:def:crs:OGC:1.3:CRS84"}}, "features": [{"type": "Feature", "properties": {"id": "1"}, "geometry": {"type": "MultiLineString", "coordinates": [[[75.81803473306216, 26.865642785382153], [75.81808596111404, 26.865100109166526], [75.818098768127, 26.865077259584535], [75.81814359267236, 26.865077259584535], [75.818274064117, 26.86508261495572], [75.8184885815842, 26.865102608339267], [75.81885358145377, 26.864854118892733], [75.81892722177834, 26.86479985100995], [75.81902967788209, 26.864774145161643], [75.81911612521961, 26.864831269261057], [75.81926020411548, 26.865233993343235], [75.81936266021924, 26.865305398172694], [75.81957877856306, 26.86537037652832], [75.81969083992651, 26.865381087242692], [75.81972045614403, 26.865349669144322], [75.81975167323809, 26.865242561925154], [75.8197652806894, 26.865183295886975], [75.81979169515364, 26.86512545791615], [75.81983011619255, 26.865109034783234], [75.8199501819391, 26.865127600063737], [75.81997979815658, 26.865193292570297], [75.82000781349744, 26.865357880693608], [75.82006144286422, 26.865733469180075], [75.82006424439834, 26.86580094644709], [75.82005503935777, 26.865843789135432], [75.82001741875717, 26.86584914447033], [75.8195523640988, 26.865800232402147], [75.81804433832198, 26.86563885812943]]]}}, {"type": "Feature", "properties": {"id": null}, "geometry": {"type": "MultiLineString", "coordinates": [[[75.81848938202255, 26.86510118024061], [75.8192574025814, 26.865238277634322]]]}}, {"type": "Feature", "properties": {"id": "3"}, "geometry": {"type": "MultiLineString", "coordinates": [[[75.81804633941779, 26.86564207133621], [75.81772136146377, 26.86562779041643], [75.81748683303877, 26.865624934232265], [75.81700897136746, 26.865696338814896], [75.81519837990932, 26.86603265379296], [75.81407776627475, 26.866309702323008], [75.81318127536711, 26.866478216045437], [75.81256333699147, 26.86660674329207], [75.81064548679976, 26.867023741797706], [75.80845548758249, 26.867489293107386]]]}}, {"type": "Feature", "properties": {"id": "4"}, "geometry": {"type": "MultiLineString", "coordinates": [[[75.80910893084848, 26.867346358769307], [75.80895311660046, 26.866667412115692], [75.80860378449549, 26.865505893285025], [75.80848226406107, 26.865037936706578], [75.80776538744357, 26.86517726628029]]]}}, {"type": "Feature", "properties": {"id": "5"}, "geometry": {"type": "MultiLineString", "coordinates": [[[75.80848628187836, 26.865052614408036], [75.80870740473213, 26.864998502686444], [75.8089419912391, 26.864951068321503], [75.80937861216634, 26.86487706182528], [75.81023900694044, 26.86468076586009], [75.81100102421192, 26.864532242941436], [75.81245767913448, 26.864238962354115], [75.8134886436783, 26.8639019279857], [75.81441046300715, 26.863734447422676], [75.81464739274703, 26.86471127456373], [75.813401195793, 26.86498764633564], [75.81332915634506, 26.864897675990406], [75.81324591076078, 26.864823414699146], [75.81306601225037, 26.864650257171967], [75.81245767913448, 26.864244674792374], [75.81240645108264, 26.864244674792374], [75.81223355640758, 26.863542042720926], [75.81218873186218, 26.863262131167815]]]}}, {"type": "Feature", "properties": {"id": "6"}, "geometry": {"type": "MultiLineString", "coordinates": [[[75.8089550734168, 26.866670616946482], [75.81107292732837, 26.866222636802046], [75.8120494693491, 26.866024328773573], [75.81257934575767, 26.86589555736213], [75.81380406923998, 26.86566454046283], [75.81498862265046, 26.865415237654968]]]}}, {"type": "Feature", "properties": {"id": "6"}, "geometry": {"type": "MultiLineString", "coordinates": [[[75.81497909541125, 26.865572468467107], [75.81493463496152, 26.865429402601958]]]}}, {"type": "Feature", "properties": {"id": "7"}, "geometry": {"type": "MultiLineString", "coordinates": [[[75.81407559555794, 26.86631045881786], [75.81390728099827, 26.86587418103502], [75.81379606400316, 26.865615558831447], [75.81336057354864, 26.864935877693352]]]}}, {"type": "Feature", "properties": {"id": "7"}, "geometry": {"type": "MultiLineString", "coordinates": [[[75.81324531043192, 26.866461079068188], [75.81309162627633, 26.866078352566294], [75.81290592458832, 26.865781310209492], [75.8126818018614, 26.865449992814273], [75.81240004757613, 26.86510724965997], [75.81214390731678, 26.864993001711074], [75.81155478472034, 26.865352882359332]]]}}, {"type": "Feature", "properties": {"id": "7"}, "geometry": {"type": "MultiLineString", "coordinates": [[[75.81069031134511, 26.867015173350726], [75.81010759225512, 26.864730230990652]]]}}, {"type": "Feature", "properties": {"id": "7"}, "geometry": {"type": "MultiLineString", "coordinates": [[[75.8103765395274, 26.8657470360412], [75.81102329368223, 26.865627076370377], [75.81162522329166, 26.865307183292863]]]}}, {"type": "Feature", "properties": {"id": "7"}, "geometry": {"type": "MultiLineString", "coordinates": [[[75.81142671459068, 26.86614690069168], [75.81248969666689, 26.865518541320494], [75.8126753983549, 26.865415718545574]]]}}, {"type": "Feature", "properties": {"id": "7"}, "geometry": {"type": "MultiLineString", "coordinates": [[[75.81193037885878, 26.86604982553957], [75.81181287624163, 26.86592375814054]]]}}, {"type": "Feature", "properties": {"id": "7"}, "geometry": {"type": "MultiLineString", "coordinates": [[[75.80963272633196, 26.866522931154663], [75.80936913938002, 26.865505893285025], [75.80923258228445, 26.864905298381895]]]}}, {"type": "Feature", "properties": {"id": "7"}, "geometry": {"type": "MultiLineString", "coordinates": [[[75.80884610147795, 26.864961583504897], [75.80869882082885, 26.86442747266462], [75.8086772089945, 26.86416113035398], [75.80871883178662, 26.864043311169315], [75.80883569577995, 26.863847659646076], [75.80889172646168, 26.86375340404695], [75.80895736240312, 26.863496342922847], [75.80892774618566, 26.863354244995186], [75.80890597610046, 26.863236818912487], [75.80878814254125, 26.862931198031415], [75.80868776580562, 26.86248931162684], [75.80863638664067, 26.862207458201443], [75.80853393053695, 26.862067500860242], [75.80838664988784, 26.86197324377777], [75.80836743936837, 26.86184756754565], [75.80838985164108, 26.86149910089901], [75.80839305339433, 26.861367711556856], [75.80857875508231, 26.861336292343733], [75.80880607956249, 26.861304873121874]]]}}, {"type": "Feature", "properties": {"id": "7"}, "geometry": {"type": "MultiLineString", "coordinates": [[[75.81130847144695, 26.86440868198608], [75.81110990007863, 26.86372542123841], [75.81105534750492, 26.86361446393385], [75.81092223922505, 26.86338865570661], [75.81081313407762, 26.863127807727025], [75.81072366785672, 26.863081088622387], [75.81059367752158, 26.86311665818985], [75.81032652512006, 26.863133647613743], [75.81025669782571, 26.863075248732947], [75.81022445624853, 26.863004354864678], [75.81017294259193, 26.862793119536775], [75.8101497747812, 26.862471791865982]]]}}, {"type": "Feature", "properties": {"id": "7"}, "geometry": {"type": "MultiLineString", "coordinates": [[[75.81037434740769, 26.864655892501485], [75.81027415464929, 26.8644281483966], [75.81016696749256, 26.864105552355475], [75.81015413898712, 26.864073865444254]]]}}, {"type": "Feature", "properties": {"id": "7"}, "geometry": {"type": "MultiLineString", "coordinates": [[[75.81217032178111, 26.865001570311247], [75.8124376681768, 26.864767361672985], [75.81259855627718, 26.864580994086893], [75.81271882213333, 26.86441952881792]]]}}, {"type": "Feature", "properties": {"id": "7"}, "geometry": {"type": "MultiLineString", "coordinates": [[[75.81307721838681, 26.86465525553731], [75.8143323056575, 26.86439534024754]]]}}, {"type": "Feature", "properties": {"id": "8"}, "geometry": {"type": "MultiLineString", "coordinates": [[[75.81442487089676, 26.863734260807625], [75.81536500082855, 26.863519079470844], [75.81556575429983, 26.86351323960402], [75.8166151557188, 26.86329283578528], [75.81680726091328, 26.863238567146787], [75.81728812422833, 26.862938304055334], [75.81772356266917, 26.862661247267326], [75.81826142780896, 26.862318737664935], [75.81876319574157, 26.862145920437985], [75.81929354539183, 26.86197876911633], [75.81980166481728, 26.862032597525587], [75.82010653647251, 26.86211758971986], [75.82020111934939, 26.862310283892796], [75.82040603155683, 26.86249308489109], [75.82037329917084, 26.862585045661703], [75.82040505663491, 26.86247172318652], [75.82054478947691, 26.862474556249783], [75.82071310403657, 26.862429227229054], [75.82128473839018, 26.86306099881777], [75.82132813649045, 26.863258560862914], [75.82120006636076, 26.863372810563703], [75.82087189135704, 26.863488788338433], [75.82052573499847, 26.863534116934566], [75.82039552939571, 26.863517118713148], [75.8203035754531, 26.863395660490013], [75.82021392636236, 26.863281410812306], [75.81979129493446, 26.863087186095385], [75.81959918973995, 26.862835835966663], [75.81945831259733, 26.86249308489109], [75.81940708454546, 26.862081782229524], [75.81940708454546, 26.862001806538327], [75.8198937614631, 26.862060928262313], [75.81993217207709, 26.861190621332494], [75.81994457340564, 26.86052397540062], [75.81994457340564, 26.860492811163468], [75.82072918125276, 26.86049351944168], [75.82114430048811, 26.860491068073916], [75.8212599519444, 26.860598135111488], [75.82144650297283, 26.86073787516029], [75.82163527365158, 26.8608589889243], [75.82194985877862, 26.860930526253302], [75.82224520319467, 26.861021185477664], [75.82241192988113, 26.86107926400509], [75.82263740787614, 26.861249249767692], [75.82293592803859, 26.861539641521233], [75.82298991572752, 26.861662880723035], [75.82299463604929, 26.86175319425892], [75.82298673998112, 26.861909358723864], [75.82290498695855, 26.862061672329965], [75.82269794554209, 26.8624122288416], [75.82250104926474, 26.862485888502125], [75.82222462739809, 26.862392906844175], [75.82193006609987, 26.862210105642802], [75.8217635749313, 26.862081782229524], [75.82166111882755, 26.862036081841474], [75.82137936454228, 26.86202465674158], [75.82100796116627, 26.862127482599096], [75.82086871561062, 26.862035430597153], [75.82083378240013, 26.86233573606644], [75.8207194555294, 26.862426394164654]]]}}, {"type": "Feature", "properties": {"id": "8"}, "geometry": {"type": "MultiLineString", "coordinates": [[[75.82010839853953, 26.862124742325104], [75.82087824284986, 26.862035430597153]]]}}, {"type": "Feature", "properties": {"id": "9"}, "geometry": {"type": "MultiLineString", "coordinates": [[[75.82114520403232, 26.860490686328802], [75.82140615284196, 26.86048328137632], [75.8214345201803, 26.860457974605435], [75.82144980311365, 26.860407993472894], [75.82142427274796, 26.86004234532212], [75.82140045464992, 26.859974350322336], [75.82130892597101, 26.859933844033737], [75.82116612151763, 26.859928477793222], [75.82105483426724, 26.85994015789669], [75.82102717168574, 26.859956694654695], [75.82101992062006, 26.859957678049643], [75.8210018984756, 26.86005367781811], [75.82100796116629, 26.860293740777717], [75.82101182268313, 26.860490686328802], [75.82072600550634, 26.86049422771989], [75.82071660831019, 26.86036258749507], [75.82072620688102, 26.860225189105225], [75.82079024194584, 26.86002524648987], [75.82087590182545, 26.85990511758266], [75.8208693555166, 26.8597435426609], [75.82082225947828, 26.85968248689857], [75.82082225947828, 26.85968248689857], [75.82061094376432, 26.859619647527527], [75.8204636631152, 26.859653923552422], [75.82037401402447, 26.859619647527516], [75.82028436493368, 26.859471117966294], [75.8202476587035, 26.85943888827097], [75.81994119917506, 26.85960604336332], [75.8196696728571, 26.859900689026457], [75.8196045700557, 26.860055094380026], [75.81956717220758, 26.860248039667336], [75.81958710345046, 26.860339822965656], [75.81963156390019, 26.86040215151566], [75.82060195291226, 26.86037736175557], [75.82071627978297, 26.860319282867792]]]}}, {"type": "Feature", "properties": {"id": "14"}, "geometry": {"type": "MultiLineString", "coordinates": [[[75.82005572452995, 26.86038940249687], [75.82007001538878, 26.860223665121744], [75.82018635729366, 26.86005111881952], [75.82034839999851, 26.859933844033726], [75.82040674969147, 26.859926531109192], [75.8204613022652, 26.859942104580483], [75.82052573499848, 26.860048011570257], [75.82037965066367, 26.860140088062714], [75.82052573499848, 26.860049428132246], [75.82067514835417, 26.86004138540959], [75.82077334298687, 26.860076425681413]]]}}, {"type": "Feature", "properties": {"id": "52"}, "geometry": {"type": "MultiLineString", "coordinates": [[[75.81465199353111, 26.864709821050997], [75.81474091443057, 26.864848638320826], [75.8147949021195, 26.86486421984041], [75.81495527731315, 26.864824557786175], [75.81503943459299, 26.864845805316953], [75.81510294952116, 26.864936461403435], [75.81514423422449, 26.865041282412847], [75.81521552677656, 26.86508415291163], [75.8153792789675, 26.86506369264305], [75.81564321895449, 26.864990716299125], [75.81567376839577, 26.86493621157285], [75.8157959661609, 26.864918692190976], [75.81589155948616, 26.86494944465017], [75.81594216705847, 26.86495762414702], [75.81599671963218, 26.865002395879912], [75.81606654692655, 26.865269079312988], [75.8161276458091, 26.865306064556982], [75.81626511829487, 26.865290491824144], [75.81667535364922, 26.865199001975427], [75.81678009459075, 26.86516007010246], [75.81680085740679, 26.865109391807906], [75.81680085740679, 26.865109391807906], [75.81673682234195, 26.86482377172468], [75.81665969465944, 26.8644943981403], [75.81637794037417, 26.863351907248475], [75.81646896612114, 26.86367739095359], [75.81450323243314, 26.864097447573315], [75.81563558159418, 26.86385389799835], [75.8155356650681, 26.863512829978347], [75.81564212790305, 26.863853897998798], [75.81613310106648, 26.863760460369125], [75.81618547153727, 26.863925922784087], [75.81650296751627, 26.863857791230767]]]}}, {"type": "Feature", "properties": {"id": "258"}, "geometry": {"type": "MultiLineString", "coordinates": [[[75.81536836845277, 26.863522007684445], [75.81553520485853, 26.86330884407524], [75.8156028500499, 26.86312002107854], [75.81554984873722, 26.86002109862763], [75.81548173507123, 26.85911121860537], [75.8157634893565, 26.85903124081414], [75.81641664701782, 26.859065517017303], [75.816724015329, 26.859065517017303], [75.8169929626013, 26.858882710480415], [75.81710822571799, 26.85869990364815], [75.81686489247164, 26.856928947169845]]]}}, {"type": "Feature", "properties": {"id": "588"}, "geometry": {"type": "MultiLineString", "coordinates": [[[75.8155521736426, 26.860068091365754], [75.81703138364023, 26.860028102815424], [75.81655112065398, 26.86003952811696], [75.81651590136832, 26.859428272864307], [75.81647107682295, 26.859385427746094], [75.81612528747284, 26.859376858720513], [75.81607405942098, 26.85941684750104], [75.81606445416126, 26.859582515155488], [75.81606765591448, 26.86005666606711]]]}}, {"type": "Feature", "properties": {"id": "254"}, "geometry": {"type": "MultiLineString", "coordinates": [[[75.81557618679189, 26.860672202388532], [75.81604684451841, 26.86066506161514]]]}}, {"type": "Feature", "properties": {"id": "254"}, "geometry": {"type": "MultiLineString", "coordinates": [[[75.81054463157268, 26.85892841214233], [75.8107239297542, 26.85936257700976], [75.8108391928709, 26.859545382771277], [75.81090322793574, 26.859693912235013], [75.81101849105242, 26.860230901746178], [75.81122340325992, 26.861076369427717], [75.81138989442847, 26.861601927234226], [75.81149235053218, 26.861830429866792], [75.8118381398823, 26.86210463241661], [75.81245287650468, 26.861933255900865], [75.81381041987913, 26.861704753476], [75.81424585832, 26.861601927234226], [75.81455322663119, 26.861350573805304], [75.81479655987755, 26.861179196147198], [75.81599703529533, 26.86116191916132], [75.8169004219886, 26.861165673466335], [75.81737076948382, 26.861030668633504], [75.81786123805865, 26.86081323257064], [75.81804593919878, 26.86069594545681], [75.81819462061493, 26.860568482610756], [75.81829487551333, 26.860521710493966], [75.81841173950666, 26.860493861438147], [75.81883563556843, 26.860508588141546], [75.81994457340564, 26.86049564427629], [75.81934594520757, 26.86050697672687], [75.81935388457362, 26.86137248928586]]]}}, {"type": "Feature", "properties": {"id": "41"}, "geometry": {"type": "MultiLineString", "coordinates": [[[75.81661895780084, 26.86328855142055], [75.81675183056036, 26.86314645323186], [75.81685848896515, 26.862984361110225], [75.81686469236215, 26.86278513743552], [75.81681382046078, 26.862282138318353], [75.81679244661069, 26.861165673466335], [75.81679905642073, 26.8617361725868]]]}}, {"type": "Feature", "properties": {"id": "5234"}, "geometry": {"type": "MultiLineString", "coordinates": [[[75.81684568195219, 26.861681903208126], [75.8179086640284, 26.86164762779767], [75.81803673415804, 26.86176187912549], [75.81803673415804, 26.86216175786416], [75.81747322558755, 26.86255021014246], [75.81726831338008, 26.86257306023494], [75.81684568195219, 26.862458809726398], [75.81679745554412, 26.861679046924333], [75.81702457991467, 26.8616776187824], [75.81703718681808, 26.861934148487563]]]}}, {"type": "Feature", "properties": {"id": "254"}, "geometry": {"type": "MultiLineString", "coordinates": [[[75.81665588951512, 26.861165673466335], [75.8166527137687, 26.860978688975294], [75.8167225801897, 26.860924860049362], [75.81675433765378, 26.8608823635108], [75.81675433765378, 26.860669880578538]]]}}, {"type": "Feature", "properties": {"id": "65"}, "geometry": {"type": "MultiLineString", "coordinates": [[[75.8178318219506, 26.86081358960886], [75.81781004718258, 26.86048328137632], [75.8178165934914, 26.86014066615158], [75.81781004718258, 26.860580615057735], [75.81766602838795, 26.860568935020385], [75.81757368022728, 26.860145754305947]]]}}, {"type": "Feature", "properties": {"id": "33"}, "geometry": {"type": "MultiLineString", "coordinates": [[[75.81829547584204, 26.86052188901353], [75.81824428566935, 26.859836983607654], [75.81834684450794, 26.85977858302498], [75.81845661227355, 26.85976077233495], [75.81940433123309, 26.859749347004282], [75.8184166718023, 26.859755222783466], [75.81837521184626, 26.859677355276933], [75.81833156978729, 26.859593647647632], [75.81814172683076, 26.859371724795768], [75.81834902661089, 26.85961311454369], [75.81851923064089, 26.859583914198343]]]}}, {"type": "Feature", "properties": {"id": "55"}, "geometry": {"type": "MultiLineString", "coordinates": [[[75.81346463052904, 26.86388693278919], [75.81317006923081, 26.862721585723534], [75.8132853323475, 26.862641610484676], [75.81558539322636, 26.862166168940966], [75.81560066794701, 26.8626372561645], [75.81544971753883, 26.862710160692867], [75.81538682185804, 26.862761840890958], [75.81534726143508, 26.86283583596666], [75.8152558956811, 26.8630810886224], [75.81513151581302, 26.863318577204037], [75.81510751268058, 26.86335166983566]]]}}, {"type": "Feature", "properties": {"id": "55"}, "geometry": {"type": "MultiLineString", "coordinates": [[[75.81337441022885, 26.863490189036423], [75.81363055048816, 26.86339709757036], [75.81400252507362, 26.863622467684163], [75.81416484420674, 26.86365144970465]]]}}, {"type": "Feature", "properties": {"id": "55"}, "geometry": {"type": "MultiLineString", "coordinates": [[[75.81440705763407, 26.863727367857084], [75.81439614711931, 26.863647556464688], [75.81440269342816, 26.863571638258694], [75.8145881721788, 26.863505453114453], [75.81478375286459, 26.86355560984493], [75.81483498091646, 26.863647009374755]]]}}, {"type": "Feature", "properties": {"id": "454"}, "geometry": {"type": "MultiLineString", "coordinates": [[[75.81215831520646, 26.86323571090891], [75.81188936793414, 26.862116057508427]]]}}, {"type": "Feature", "properties": {"id": "2355"}, "geometry": {"type": "MultiLineString", "coordinates": [[[75.81095060656338, 26.863447054425603], [75.8121455081935, 26.86320143596924]]]}}, {"type": "Feature", "properties": {"id": "53"}, "geometry": {"type": "MultiLineString", "coordinates": [[[75.80880996357074, 26.863001276773996], [75.81013231795761, 26.862699548567186]]]}}, {"type": "Feature", "properties": {"id": "54"}, "geometry": {"type": "MultiLineString", "coordinates": [[[75.8112538199157, 26.861202046516613], [75.81035732900804, 26.861424837376532], [75.81008197822923, 26.861481963167368], [75.80996671511258, 26.861441975116815], [75.80974899589214, 26.860573659675936]]]}}, {"type": "Feature", "properties": {"id": "43"}, "geometry": {"type": "MultiLineString", "coordinates": [[[75.80838504901122, 26.861361998973297], [75.80842347005009, 26.860825014831075], [75.80803925966111, 26.860882140924808], [75.80976820641159, 26.860596510167667], [75.81021645186543, 26.860470832406058], [75.81030289920297, 26.86054795286723], [75.81031890796916, 26.860550809179596], [75.81032851322888, 26.86082501483107], [75.81040535530667, 26.861130639096885], [75.8104982061507, 26.861373424140115], [75.81050140790391, 26.861384849305782], [75.8102612764108, 26.861444831406608], [75.81022285537189, 26.861259172419963], [75.81037653952751, 26.86102495603294], [75.81004675894363, 26.860893566140092], [75.81004675894363, 26.860879284620804], [75.81033171498213, 26.86082215852562]]]}}, {"type": "Feature", "properties": {"id": "543"}, "geometry": {"type": "MultiLineString", "coordinates": [[[75.81031250446267, 26.860553665491896], [75.81104570595498, 26.8604108497888]]]}}, {"type": "Feature", "properties": {"id": "453"}, "geometry": {"type": "MultiLineString", "coordinates": [[[75.81021004835894, 26.86049939554596], [75.81003715368391, 26.859851010494072]]]}}, {"type": "Feature", "properties": {"id": "4524"}, "geometry": {"type": "MultiLineString", "coordinates": [[[75.81619412516751, 26.859042666216357], [75.81619412516751, 26.858608500121267]]]}}, {"type": "Feature", "properties": {"id": "542"}, "geometry": {"type": "MultiLineString", "coordinates": [[[75.81559859906457, 26.862030369291666], [75.81598104340327, 26.86202622310554], [75.81599241471329, 26.86233884656824], [75.81598836700978, 26.862013185244052], [75.8160075775292, 26.861913215555592], [75.81608504909813, 26.86187323698146]]]}}, {"type": "Feature", "properties": {"id": "654"}, "geometry": {"type": "MultiLineString", "coordinates": [[[75.81468930114396, 26.85747737536476], [75.81484938880605, 26.858511383793005], [75.81484675137827, 26.858929824487284], [75.8151216963498, 26.858920090980885], [75.81501587997462, 26.85795724785467]]]}}, {"type": "Feature", "properties": {"id": "53"}, "geometry": {"type": "MultiLineString", "coordinates": [[[75.81559219555811, 26.857780152291777], [75.81545131841547, 26.857283140683087]]]}}, {"type": "Feature", "properties": {"id": "53"}, "geometry": {"type": "MultiLineString", "coordinates": [[[75.81329974023711, 26.857808716111], [75.81346623140566, 26.85826573623771], [75.81283868777032, 26.85844854377149], [75.81267860010823, 26.85804293915655]]]}}, {"type": "Feature", "properties": {"id": "420"}, "geometry": {"type": "MultiLineString", "coordinates": [[[75.81401693296321, 26.864886608204884], [75.81412164388087, 26.86529483553393]]]}}, {"type": "Feature", "properties": {"id": "542"}, "geometry": {"type": "MultiLineString", "coordinates": [[[75.8156715862928, 26.86495373104378], [75.8155962741592, 26.86460344373882]]]}}, {"type": "Feature", "properties": {"id": "524"}, "geometry": {"type": "MultiLineString", "coordinates": [[[75.82263522455051, 26.862435778690188], [75.82263502606637, 26.862435955756702], [75.82263522455051, 26.86243560162368], [75.82263482758222, 26.862435424557166], [75.82265030934597, 26.862443392549977], [75.82282815788413, 26.862527360045373], [75.82294342100083, 26.86255021014247]]]}}, {"type": "Feature", "properties": {"id": "5230"}, "geometry": {"type": "MultiLineString", "coordinates": [[[75.82057714239345, 26.860492457024357], [75.82057695372148, 26.86049301474823], [75.82057477161852, 26.860477441352774], [75.82057654694097, 26.860385152823618]]]}}]}