{"type": "FeatureCollection", "name": "solar_panel_4", "crs": {"type": "name", "properties": {"name": "urn:ogc:def:crs:OGC:1.3:CRS84"}}, "features": [{"type": "Feature", "properties": {"name": null, "capacity": null, "rotation": -10.0}, "geometry": {"type": "Point", "coordinates": [75.81978627835485, 26.860176213434713]}}, {"type": "Feature", "properties": {"name": null, "capacity": null, "rotation": -20.0}, "geometry": {"type": "Point", "coordinates": [75.81987601333212, 26.85996869992307]}}, {"type": "Feature", "properties": {"name": null, "capacity": null, "rotation": -30.0}, "geometry": {"type": "Point", "coordinates": [75.82004244915578, 26.859755819287155]}}, {"type": "Feature", "properties": {"name": null, "capacity": null, "rotation": -50.0}, "geometry": {"type": "Point", "coordinates": [75.82023094273926, 26.859619861696626]}}, {"type": "Feature", "properties": {"name": null, "capacity": null, "rotation": -120.0}, "geometry": {"type": "Point", "coordinates": [75.82001838614514, 26.860149379812395]}}, {"type": "Feature", "properties": {"name": null, "capacity": null, "rotation": 220.0}, "geometry": {"type": "Point", "coordinates": [75.82026302675345, 26.85981306453955]}}, {"type": "Feature", "properties": {"name": null, "capacity": null, "rotation": 180.0}, "geometry": {"type": "Point", "coordinates": [75.8172599130362, 26.860823020946377]}}, {"type": "Feature", "properties": {"name": null, "capacity": null, "rotation": 180.0}, "geometry": {"type": "Point", "coordinates": [75.81745933596434, 26.860813863992437]}}, {"type": "Feature", "properties": {"name": null, "capacity": null, "rotation": 180.0}, "geometry": {"type": "Point", "coordinates": [75.81726137938125, 26.860277526825453]}}, {"type": "Feature", "properties": {"name": null, "capacity": null, "rotation": 180.0}, "geometry": {"type": "Point", "coordinates": [75.81745493692917, 26.860281451252984]}}, {"type": "Feature", "properties": {"name": null, "capacity": null, "rotation": 90.0}, "geometry": {"type": "Point", "coordinates": [75.8171865957832, 26.860399184015563]}}, {"type": "Feature", "properties": {"name": null, "capacity": null, "rotation": 90.0}, "geometry": {"type": "Point", "coordinates": [75.81752825418216, 26.86040964914409]}}, {"type": "Feature", "properties": {"name": null, "capacity": null, "rotation": 90.0}, "geometry": {"type": "Point", "coordinates": [75.817182196748, 26.86067520145639]}}, {"type": "Feature", "properties": {"name": null, "capacity": null, "rotation": 90.0}, "geometry": {"type": "Point", "coordinates": [75.81754145128772, 26.86067520145639]}}, {"type": "Feature", "properties": {"name": null, "capacity": null, "rotation": 180.0}, "geometry": {"type": "Point", "coordinates": [75.81727017745163, 26.860552236423754]}}, {"type": "Feature", "properties": {"name": null, "capacity": null, "rotation": 180.0}, "geometry": {"type": "Point", "coordinates": [75.81746226865448, 26.860556160841757]}}, {"type": "Feature", "properties": {"name": null, "capacity": null, "rotation": 110.0}, "geometry": {"type": "Point", "coordinates": [75.81540975215678, 26.857564897246313]}}, {"type": "Feature", "properties": {"name": null, "capacity": null, "rotation": 110.0}, "geometry": {"type": "Point", "coordinates": [75.81548893479003, 26.85781083367177]}}, {"type": "Feature", "properties": {"name": null, "capacity": null, "rotation": 110.0}, "geometry": {"type": "Point", "coordinates": [75.81513847832069, 26.8575936770684]}}, {"type": "Feature", "properties": {"name": null, "capacity": null, "rotation": 110.0}, "geometry": {"type": "Point", "coordinates": [75.8152147282638, 26.857860544160907]}}, {"type": "Feature", "properties": {"name": null, "capacity": null, "rotation": 110.0}, "geometry": {"type": "Point", "coordinates": [75.81440970482589, 26.858081624755908]}}, {"type": "Feature", "properties": {"name": null, "capacity": null, "rotation": 110.0}, "geometry": {"type": "Point", "coordinates": [75.81468977673234, 26.85804107154302]}}, {"type": "Feature", "properties": {"name": null, "capacity": null, "rotation": 20.0}, "geometry": {"type": "Point", "coordinates": [75.81449475283935, 26.857877550375854]}}, {"type": "Feature", "properties": {"name": null, "capacity": null, "rotation": 110.0}, "geometry": {"type": "Point", "coordinates": [75.81448448842394, 26.85824645379415]}}, {"type": "Feature", "properties": {"name": null, "capacity": null, "rotation": 20.0}, "geometry": {"type": "Point", "coordinates": [75.81466924790149, 26.85821505780538]}}, {"type": "Feature", "properties": {"name": null, "capacity": null, "rotation": 20.0}, "geometry": {"type": "Point", "coordinates": [75.81399619551895, 26.858617972333086]}}, {"type": "Feature", "properties": {"name": null, "capacity": null, "rotation": 20.0}, "geometry": {"type": "Point", "coordinates": [75.81420734920759, 26.858555180553022]}}, {"type": "Feature", "properties": {"name": null, "capacity": null, "rotation": 60.0}, "geometry": {"type": "Point", "coordinates": [75.81317724180299, 26.85825332166554]}}, {"type": "Feature", "properties": {"name": null, "capacity": null, "rotation": 60.0}, "geometry": {"type": "Point", "coordinates": [75.81302712472747, 26.858204559769693]}}, {"type": "Feature", "properties": {"name": null, "capacity": null, "rotation": 60.0}, "geometry": {"type": "Point", "coordinates": [75.81290857072939, 26.85815579785284]}}, {"type": "Feature", "properties": {"name": null, "capacity": null, "rotation": 140.0}, "geometry": {"type": "Point", "coordinates": [75.8132003367377, 26.858111156642924]}}, {"type": "Feature", "properties": {"name": null, "capacity": null, "rotation": 110.0}, "geometry": {"type": "Point", "coordinates": [75.81255983721549, 26.858339513415928]}}, {"type": "Feature", "properties": {"name": null, "capacity": null, "rotation": 80.0}, "geometry": {"type": "Point", "coordinates": [75.81273073973223, 26.85832165696307]}}, {"type": "Feature", "properties": {"name": null, "capacity": null, "rotation": 120.0}, "geometry": {"type": "Point", "coordinates": [75.81279540554938, 26.85853868135294]}}, {"type": "Feature", "properties": {"name": null, "capacity": null, "rotation": 100.0}, "geometry": {"type": "Point", "coordinates": [75.81264605830502, 26.85856752633544]}}, {"type": "Feature", "properties": {"name": null, "capacity": null, "rotation": 10.0}, "geometry": {"type": "Point", "coordinates": [75.80917027063356, 26.861101048607612]}}, {"type": "Feature", "properties": {"name": null, "capacity": null, "rotation": 10.0}, "geometry": {"type": "Point", "coordinates": [75.80938274403275, 26.86105434824952]}}, {"type": "Feature", "properties": {"name": null, "capacity": null, "rotation": 10.0}, "geometry": {"type": "Point", "coordinates": [75.80928574530701, 26.861518603893764]}}, {"type": "Feature", "properties": {"name": null, "capacity": null, "rotation": 10.0}, "geometry": {"type": "Point", "coordinates": [75.80951207566703, 26.861463662496806]}}, {"type": "Feature", "properties": {"name": null, "capacity": null, "rotation": 110.0}, "geometry": {"type": "Point", "coordinates": [75.8089747335198, 26.861313947054647]}}, {"type": "Feature", "properties": {"name": null, "capacity": null, "rotation": 100.0}, "geometry": {"type": "Point", "coordinates": [75.80965834358676, 26.861142254789925]}}, {"type": "Feature", "properties": {"name": null, "capacity": null, "rotation": 100.0}, "geometry": {"type": "Point", "coordinates": [75.8088962107418, 26.861959507638137]}}, {"type": "Feature", "properties": {"name": null, "capacity": null, "rotation": 100.0}, "geometry": {"type": "Point", "coordinates": [75.80875456180902, 26.861999339979004]}}, {"type": "Feature", "properties": {"name": null, "capacity": null, "rotation": 140.0}, "geometry": {"type": "Point", "coordinates": [75.80855132638371, 26.861878469384116]}}, {"type": "Feature", "properties": {"name": null, "capacity": null, "rotation": 70.0}, "geometry": {"type": "Point", "coordinates": [75.80860521456466, 26.86171089857303]}}, {"type": "Feature", "properties": {"name": null, "capacity": null, "rotation": 0.0}, "geometry": {"type": "Point", "coordinates": [75.80881460863922, 26.861752104533192]}}, {"type": "Feature", "properties": {"name": null, "capacity": null, "rotation": 10.0}, "geometry": {"type": "Point", "coordinates": [75.80988852310247, 26.861655957269456]}}, {"type": "Feature", "properties": {"name": null, "capacity": null, "rotation": 10.0}, "geometry": {"type": "Point", "coordinates": [75.81009791717705, 26.861617498341076]}}, {"type": "Feature", "properties": {"name": null, "capacity": null, "rotation": 10.0}, "geometry": {"type": "Point", "coordinates": [75.80997628385431, 26.86209136636806]}}, {"type": "Feature", "properties": {"name": null, "capacity": null, "rotation": 10.0}, "geometry": {"type": "Point", "coordinates": [75.8101887572535, 26.862048787003324]}}, {"type": "Feature", "properties": {"name": null, "capacity": null, "rotation": 10.0}, "geometry": {"type": "Point", "coordinates": [75.81063371966195, 26.862263057192287]}}, {"type": "Feature", "properties": {"name": null, "capacity": null, "rotation": 10.0}, "geometry": {"type": "Point", "coordinates": [75.81084157407422, 26.862212236735466]}}, {"type": "Feature", "properties": {"name": null, "capacity": null, "rotation": 100.0}, "geometry": {"type": "Point", "coordinates": [75.81039815132807, 26.862486941635627]}}, {"type": "Feature", "properties": {"name": null, "capacity": null, "rotation": 100.0}, "geometry": {"type": "Point", "coordinates": [75.81045203950903, 26.862677861148306]}}, {"type": "Feature", "properties": {"name": null, "capacity": null, "rotation": 10.0}, "geometry": {"type": "Point", "coordinates": [75.81072763906306, 26.86269159635262]}}, {"type": "Feature", "properties": {"name": null, "capacity": null, "rotation": 10.0}, "geometry": {"type": "Point", "coordinates": [75.81095396942305, 26.86262704087784]}}, {"type": "Feature", "properties": {"name": null, "capacity": null, "rotation": 15.0}, "geometry": {"type": "Point", "coordinates": [75.8115267238035, 26.862811092559788]}}, {"type": "Feature", "properties": {"name": null, "capacity": null, "rotation": 15.0}, "geometry": {"type": "Point", "coordinates": [75.81131732972892, 26.86285641867431]}}, {"type": "Feature", "properties": {"name": null, "capacity": null, "rotation": 100.0}, "geometry": {"type": "Point", "coordinates": [75.81482160115323, 26.862528834074272]}}, {"type": "Feature", "properties": {"name": null, "capacity": null, "rotation": 105.0}, "geometry": {"type": "Point", "coordinates": [75.81505255050018, 26.862526773790762]}}, {"type": "Feature", "properties": {"name": null, "capacity": null, "rotation": 100.0}, "geometry": {"type": "Point", "coordinates": [75.81461567131889, 26.86260643805898]}}, {"type": "Feature", "properties": {"name": null, "capacity": null, "rotation": 10.0}, "geometry": {"type": "Point", "coordinates": [75.81512529954449, 26.86277812810144]}}, {"type": "Feature", "properties": {"name": null, "capacity": null, "rotation": 10.0}, "geometry": {"type": "Point", "coordinates": [75.81508372866205, 26.862670993545514]}}, {"type": "Feature", "properties": {"name": null, "capacity": null, "rotation": 10.0}, "geometry": {"type": "Point", "coordinates": [75.81437548399808, 26.862717693236213]}}, {"type": "Feature", "properties": {"name": null, "capacity": null, "rotation": 100.0}, "geometry": {"type": "Point", "coordinates": [75.81417378823508, 26.862701210994636]}}, {"type": "Feature", "properties": {"name": null, "capacity": null, "rotation": 100.0}, "geometry": {"type": "Point", "coordinates": [75.81395207686201, 26.862716319716174]}}, {"type": "Feature", "properties": {"name": null, "capacity": null, "rotation": 100.0}, "geometry": {"type": "Point", "coordinates": [75.81375038109901, 26.862789116255282]}}, {"type": "Feature", "properties": {"name": null, "capacity": null, "rotation": 10.0}, "geometry": {"type": "Point", "coordinates": [75.81379965029303, 26.862933335675564]}}, {"type": "Feature", "properties": {"name": null, "capacity": null, "rotation": 10.0}, "geometry": {"type": "Point", "coordinates": [75.81382736421465, 26.863066566786138]}}, {"type": "Feature", "properties": {"name": null, "capacity": null, "rotation": 70.0}, "geometry": {"type": "Point", "coordinates": [75.81414232192674, 26.863260113204532]}}, {"type": "Feature", "properties": {"name": null, "capacity": null, "rotation": 100.0}, "geometry": {"type": "Point", "coordinates": [75.81444682656995, 26.863296123745243]}}, {"type": "Feature", "properties": {"name": null, "capacity": null, "rotation": 115.0}, "geometry": {"type": "Point", "coordinates": [75.81467147552861, 26.86323819373935]}}, {"type": "Feature", "properties": {"name": "NULL1", "capacity": null, "rotation": 120.0}, "geometry": {"type": "Point", "coordinates": [75.81492683821212, 26.86310511118102]}}, {"type": "Feature", "properties": {"name": null, "capacity": null, "rotation": 10.0}, "geometry": {"type": "Point", "coordinates": [75.81972300572647, 26.862214628269268]}}, {"type": "Feature", "properties": {"name": null, "capacity": null, "rotation": 20.0}, "geometry": {"type": "Point", "coordinates": [75.81980373894602, 26.862485492384717]}}, {"type": "Feature", "properties": {"name": "NULL4", "capacity": null, "rotation": 40.0}, "geometry": {"type": "Point", "coordinates": [75.82000732706481, 26.86270155693663]}}, {"type": "Feature", "properties": {"name": null, "capacity": null, "rotation": 60.0}, "geometry": {"type": "Point", "coordinates": [75.8202109151836, 26.862953631725606]}}, {"type": "Feature", "properties": {"name": "NULL10", "capacity": null, "rotation": 100.0}, "geometry": {"type": "Point", "coordinates": [75.82047242061208, 26.863094542853545]}}, {"type": "Feature", "properties": {"name": null, "capacity": null, "rotation": 10.0}, "geometry": {"type": "Point", "coordinates": [75.82068127394083, 26.86290979267222]}}, {"type": "Feature", "properties": {"name": null, "capacity": null, "rotation": 10.0}, "geometry": {"type": "Point", "coordinates": [75.82065143775102, 26.862746961753764]}}, {"type": "Feature", "properties": {"name": null, "capacity": null, "rotation": 112.0}, "geometry": {"type": "Point", "coordinates": [75.82078306800024, 26.863082017427057]}}, {"type": "Feature", "properties": {"name": null, "capacity": null, "rotation": 120.0}, "geometry": {"type": "Point", "coordinates": [75.82105861398861, 26.86295050036521]}}, {"type": "Feature", "properties": {"name": null, "capacity": null, "rotation": 20.0}, "geometry": {"type": "Point", "coordinates": [75.82090416782953, 26.862847165423627]}}, {"type": "Feature", "properties": {"name": "NULL32", "capacity": null, "rotation": 320.0}, "geometry": {"type": "Point", "coordinates": [75.82020213983365, 26.862642060941774]}}, {"type": "Feature", "properties": {"name": null, "capacity": null, "rotation": 300.0}, "geometry": {"type": "Point", "coordinates": [75.82001610241475, 26.862452612960205]}}, {"type": "Feature", "properties": {"name": null, "capacity": null, "rotation": 290.0}, "geometry": {"type": "Point", "coordinates": [75.81992834891527, 26.86228351862603]}}, {"type": "Feature", "properties": {"name": null, "capacity": null, "rotation": 350.0}, "geometry": {"type": "Point", "coordinates": [75.82038642218258, 26.862704688303925]}}, {"type": "Feature", "properties": {"name": null, "capacity": null, "rotation": 20.0}, "geometry": {"type": "Point", "coordinates": [75.82083923023993, 26.863213534335998]}}, {"type": "Feature", "properties": {"name": null, "capacity": null, "rotation": 120.0}, "geometry": {"type": "Point", "coordinates": [75.82119375437783, 26.863092977175317]}}, {"type": "Feature", "properties": {"name": null, "capacity": null, "rotation": 300.0}, "geometry": {"type": "Point", "coordinates": [75.8196528029269, 26.862560645319153]}}, {"type": "Feature", "properties": {"name": "NULL290", "capacity": null, "rotation": 290.0}, "geometry": {"type": "Point", "coordinates": [75.81954574365753, 26.862245942073]}}, {"type": "Feature", "properties": {"name": null, "capacity": null, "rotation": 350.0}, "geometry": {"type": "Point", "coordinates": [75.81820750279039, 26.865279425713734]}}, {"type": "Feature", "properties": {"name": "NULL80", "capacity": null, "rotation": null}, "geometry": {"type": "Point", "coordinates": [75.81827068531003, 26.865127557757578]}}, {"type": "Feature", "properties": {"name": "NULL80", "capacity": null, "rotation": null}, "geometry": {"type": "Point", "coordinates": [75.81877439039705, 26.865342051615656]}}, {"type": "Feature", "properties": {"name": "NULL90", "capacity": null, "rotation": null}, "geometry": {"type": "Point", "coordinates": [75.81901132484566, 26.86539528360503]}}, {"type": "Feature", "properties": {"name": "NULL90", "capacity": null, "rotation": null}, "geometry": {"type": "Point", "coordinates": [75.81932372730382, 26.86544538427802]}}, {"type": "Feature", "properties": {"name": null, "capacity": null, "rotation": null}, "geometry": {"type": "Point", "coordinates": [75.81955188640248, 26.865473565896824]}}, {"type": "Feature", "properties": {"name": null, "capacity": null, "rotation": 350.0}, "geometry": {"type": "Point", "coordinates": [75.81846023286892, 26.865360839379477]}}, {"type": "Feature", "properties": {"name": null, "capacity": null, "rotation": 350.0}, "geometry": {"type": "Point", "coordinates": [75.81984498309076, 26.86553306040236]}}, {"type": "Feature", "properties": {"name": null, "capacity": null, "rotation": 350.0}, "geometry": {"type": "Point", "coordinates": [75.81996081771007, 26.86508215389604]}}, {"type": "Feature", "properties": {"name": null, "capacity": null, "rotation": 110.0}, "geometry": {"type": "Point", "coordinates": [75.81899377414577, 26.864892710001218]}}, {"type": "Feature", "properties": {"name": null, "capacity": null, "rotation": 120.0}, "geometry": {"type": "Point", "coordinates": [75.81874279913725, 26.86495533611726]}}, {"type": "Feature", "properties": {"name": null, "capacity": null, "rotation": 160.0}, "geometry": {"type": "Point", "coordinates": [75.81980812662097, 26.865348314203946]}}, {"type": "Feature", "properties": {"name": null, "capacity": null, "rotation": 350.0}, "geometry": {"type": "Point", "coordinates": [75.81983445267082, 26.865176092899762]}}, {"type": "Feature", "properties": {"name": null, "capacity": null, "rotation": 20.0}, "geometry": {"type": "Point", "coordinates": [75.81491499148986, 26.864368997748393]}}, {"type": "Feature", "properties": {"name": "NULL20", "capacity": null, "rotation": 20.0}, "geometry": {"type": "Point", "coordinates": [75.81500976526931, 26.864596018305207]}}, {"type": "Feature", "properties": {"name": null, "capacity": null, "rotation": 100.0}, "geometry": {"type": "Point", "coordinates": [75.81483952348032, 26.864545917255988]}}, {"type": "Feature", "properties": {"name": null, "capacity": null, "rotation": 100.0}, "geometry": {"type": "Point", "coordinates": [75.81515017086848, 26.864317330937332]}}, {"type": "Feature", "properties": {"name": null, "capacity": null, "rotation": 20.0}, "geometry": {"type": "Point", "coordinates": [75.81535726912726, 26.86450521013716]}}, {"type": "Feature", "properties": {"name": null, "capacity": null, "rotation": 10.0}, "geometry": {"type": "Point", "coordinates": [75.81552575584627, 26.864794856625483]}}, {"type": "Feature", "properties": {"name": null, "capacity": null, "rotation": 100.0}, "geometry": {"type": "Point", "coordinates": [75.81526600548779, 26.8648073818623]}}, {"type": "Feature", "properties": {"name": "NULL10", "capacity": null, "rotation": 10.0}, "geometry": {"type": "Point", "coordinates": [75.81640680098107, 26.86488723021441]}}, {"type": "Feature", "properties": {"name": "NULL1", "capacity": null, "rotation": 100.0}, "geometry": {"type": "Point", "coordinates": [75.81655247179022, 26.864647684988977]}}, {"type": "Feature", "properties": {"name": null, "capacity": null, "rotation": 10.0}, "geometry": {"type": "Point", "coordinates": [75.81634010832146, 26.86460541224947]}}, {"type": "Feature", "properties": {"name": null, "capacity": null, "rotation": 100.0}, "geometry": {"type": "Point", "coordinates": [75.81641733140101, 26.8641404110722]}}, {"type": "Feature", "properties": {"name": null, "capacity": null, "rotation": 10.0}, "geometry": {"type": "Point", "coordinates": [75.81623655919208, 26.86430637130771]}}, {"type": "Feature", "properties": {"name": null, "capacity": null, "rotation": 10.0}, "geometry": {"type": "Point", "coordinates": [75.81597680883361, 26.864361169445207]}}, {"type": "Feature", "properties": {"name": null, "capacity": null, "rotation": 100.0}, "geometry": {"type": "Point", "coordinates": [75.81587150463422, 26.86468369508794]}}, {"type": "Feature", "properties": {"name": null, "capacity": null, "rotation": 100.0}, "geometry": {"type": "Point", "coordinates": [75.81552400077628, 26.864649250645687]}}, {"type": "Feature", "properties": {"name": null, "capacity": null, "rotation": 10.0}, "geometry": {"type": "Point", "coordinates": [75.81079759729404, 26.86614835700565]}}, {"type": "Feature", "properties": {"name": null, "capacity": null, "rotation": 10.0}, "geometry": {"type": "Point", "coordinates": [75.81075723068429, 26.8659291677598]}}, {"type": "Feature", "properties": {"name": null, "capacity": null, "rotation": 100.0}, "geometry": {"type": "Point", "coordinates": [75.81064753880992, 26.866061464176866]}}, {"type": "Feature", "properties": {"name": null, "capacity": null, "rotation": 100.0}, "geometry": {"type": "Point", "coordinates": [75.81091079930843, 26.866022323241186]}}, {"type": "Feature", "properties": {"name": null, "capacity": null, "rotation": 10.0}, "geometry": {"type": "Point", "coordinates": [75.80985073703472, 26.865800002469584]}}, {"type": "Feature", "properties": {"name": null, "capacity": null, "rotation": 100.0}, "geometry": {"type": "Point", "coordinates": [75.80983318633473, 26.86594717260673]}}, {"type": "Feature", "properties": {"name": null, "capacity": null, "rotation": 100.0}, "geometry": {"type": "Point", "coordinates": [75.81036848268162, 26.86415919903563]}}, {"type": "Feature", "properties": {"name": null, "capacity": null, "rotation": 100.0}, "geometry": {"type": "Point", "coordinates": [75.8105387244706, 26.86412005744166]}}, {"type": "Feature", "properties": {"name": null, "capacity": null, "rotation": 10.0}, "geometry": {"type": "Point", "coordinates": [75.81034215663176, 26.863994804249952]}}, {"type": "Feature", "properties": {"name": null, "capacity": null, "rotation": 10.0}, "geometry": {"type": "Point", "coordinates": [75.81034215663176, 26.863806924202336]}}, {"type": "Feature", "properties": {"name": null, "capacity": null, "rotation": 10.0}, "geometry": {"type": "Point", "coordinates": [75.81037374789159, 26.863673842313123]}}, {"type": "Feature", "properties": {"name": null, "capacity": null, "rotation": 10.0}, "geometry": {"type": "Point", "coordinates": [75.81061594755015, 26.863648791587057]}}, {"type": "Feature", "properties": {"name": null, "capacity": null, "rotation": 100.0}, "geometry": {"type": "Point", "coordinates": [75.81072125174953, 26.86382571222114]}}, {"type": "Feature", "properties": {"name": null, "capacity": null, "rotation": 100.0}, "geometry": {"type": "Point", "coordinates": [75.81077390384924, 26.864010460906506]}}, {"type": "Feature", "properties": {"name": null, "capacity": null, "rotation": null}, "geometry": {"type": "Point", "coordinates": [75.81574737327968, 26.863488446655378]}}, {"type": "Feature", "properties": {"name": null, "capacity": null, "rotation": null}, "geometry": {"type": "Point", "coordinates": [75.81586552575862, 26.863488446655378]}}, {"type": "Feature", "properties": {"name": null, "capacity": null, "rotation": null}, "geometry": {"type": "Point", "coordinates": [75.8159836782376, 26.863448920848857]}}, {"type": "Feature", "properties": {"name": null, "capacity": null, "rotation": null}, "geometry": {"type": "Point", "coordinates": [75.81610183071653, 26.863435745576947]}}, {"type": "Feature", "properties": {"name": null, "capacity": null, "rotation": null}, "geometry": {"type": "Point", "coordinates": [75.81625690584518, 26.863389632113183]}}, {"type": "Feature", "properties": {"name": null, "capacity": null, "rotation": null}, "geometry": {"type": "Point", "coordinates": [75.81645628815342, 26.863343518630618]}}, {"type": "Feature", "properties": {"name": null, "capacity": null, "rotation": null}, "geometry": {"type": "Point", "coordinates": [75.81656705610244, 26.863336930988723]}}, {"type": "Feature", "properties": {"name": null, "capacity": null, "rotation": null}, "geometry": {"type": "Point", "coordinates": [75.81672213123107, 26.86330399277346]}}, {"type": "Feature", "properties": {"name": null, "capacity": null, "rotation": null}, "geometry": {"type": "Point", "coordinates": [75.81682551465016, 26.86327764219435]}}, {"type": "Feature", "properties": {"name": null, "capacity": null, "rotation": null}, "geometry": {"type": "Point", "coordinates": [75.81694366712912, 26.86321835336889]}}, {"type": "Feature", "properties": {"name": null, "capacity": null, "rotation": null}, "geometry": {"type": "Point", "coordinates": [75.81705443507815, 26.863159064512374]}}, {"type": "Feature", "properties": {"name": null, "capacity": null, "rotation": null}, "geometry": {"type": "Point", "coordinates": [75.81713566490744, 26.863093187968676]}}, {"type": "Feature", "properties": {"name": null, "capacity": null, "rotation": null}, "geometry": {"type": "Point", "coordinates": [75.81722427926665, 26.863040486706087]}}, {"type": "Feature", "properties": {"name": null, "capacity": null, "rotation": null}, "geometry": {"type": "Point", "coordinates": [75.81734981627554, 26.862974610093335]}}, {"type": "Feature", "properties": {"name": null, "capacity": null, "rotation": null}, "geometry": {"type": "Point", "coordinates": [75.8174901223443, 26.862895558107397]}}, {"type": "Feature", "properties": {"name": null, "capacity": null, "rotation": null}, "geometry": {"type": "Point", "coordinates": [75.81757873670351, 26.862856032093703]}}, {"type": "Feature", "properties": {"name": null, "capacity": null, "rotation": null}, "geometry": {"type": "Point", "coordinates": [75.81772642730222, 26.862757216999054]}}, {"type": "Feature", "properties": {"name": null, "capacity": null, "rotation": null}, "geometry": {"type": "Point", "coordinates": [75.8178519643111, 26.862684752541448]}}, {"type": "Feature", "properties": {"name": null, "capacity": null, "rotation": null}, "geometry": {"type": "Point", "coordinates": [75.81799227037988, 26.862585937297176]}}, {"type": "Feature", "properties": {"name": null, "capacity": null, "rotation": null}, "geometry": {"type": "Point", "coordinates": [75.81809565379896, 26.862513472729844]}}, {"type": "Feature", "properties": {"name": null, "capacity": null, "rotation": null}, "geometry": {"type": "Point", "coordinates": [75.81819165268813, 26.862467358890104]}}, {"type": "Feature", "properties": {"name": null, "capacity": null, "rotation": null}, "geometry": {"type": "Point", "coordinates": [75.81832457422693, 26.862381718852138]}}, {"type": "Feature", "properties": {"name": null, "capacity": null, "rotation": null}, "geometry": {"type": "Point", "coordinates": [75.81845011123585, 26.862329017258084]}}, {"type": "Feature", "properties": {"name": null, "capacity": null, "rotation": null}, "geometry": {"type": "Point", "coordinates": [75.81117634924998, 26.863442333213104]}}, {"type": "Feature", "properties": {"name": null, "capacity": null, "rotation": null}, "geometry": {"type": "Point", "coordinates": [75.81122804095952, 26.863560910598128]}}, {"type": "Feature", "properties": {"name": null, "capacity": null, "rotation": null}, "geometry": {"type": "Point", "coordinates": [75.81126496360919, 26.863705838344355]}}, {"type": "Feature", "properties": {"name": null, "capacity": null, "rotation": null}, "geometry": {"type": "Point", "coordinates": [75.81128711719899, 26.86385076590489]}}, {"type": "Feature", "properties": {"name": null, "capacity": null, "rotation": null}, "geometry": {"type": "Point", "coordinates": [75.81131665531875, 26.863916642007386]}}, {"type": "Feature", "properties": {"name": null, "capacity": null, "rotation": null}, "geometry": {"type": "Point", "coordinates": [75.81134619343848, 26.864041806496427]}}, {"type": "Feature", "properties": {"name": null, "capacity": null, "rotation": null}, "geometry": {"type": "Point", "coordinates": [75.8113757315582, 26.864160383253026]}}, {"type": "Feature", "properties": {"name": null, "capacity": null, "rotation": null}, "geometry": {"type": "Point", "coordinates": [75.81112465754043, 26.863244703961826]}}, {"type": "Feature", "properties": {"name": null, "capacity": null, "rotation": null}, "geometry": {"type": "Point", "coordinates": [75.81122804095952, 26.863178827468]}}, {"type": "Feature", "properties": {"name": null, "capacity": null, "rotation": null}, "geometry": {"type": "Point", "coordinates": [75.81135438933914, 26.8631634417579]}}, {"type": "Feature", "properties": {"name": null, "capacity": null, "rotation": null}, "geometry": {"type": "Point", "coordinates": [75.81148391679052, 26.863148035101634]}}, {"type": "Feature", "properties": {"name": null, "capacity": null, "rotation": null}, "geometry": {"type": "Point", "coordinates": [75.81158753875164, 26.863121073448127]}}, {"type": "Feature", "properties": {"name": null, "capacity": null, "rotation": null}, "geometry": {"type": "Point", "coordinates": [75.81170411345786, 26.863094111788197]}}, {"type": "Feature", "properties": {"name": null, "capacity": null, "rotation": null}, "geometry": {"type": "Point", "coordinates": [75.81182500574582, 26.863071001788853]}}]}