{"type": "FeatureCollection", "name": "transformers_5", "crs": {"type": "name", "properties": {"name": "urn:ogc:def:crs:OGC:1.3:CRS84"}}, "features": [{"type": "Feature", "properties": {"name": null, "Generation": null, "rotation": 280.0}, "geometry": {"type": "Point", "coordinates": [75.81537043607305, 26.86029790019072]}}, {"type": "Feature", "properties": {"name": null, "Generation": null, "rotation": null}, "geometry": {"type": "Point", "coordinates": [75.81824559045451, 26.860509932726963]}}, {"type": "Feature", "properties": {"name": null, "Generation": null, "rotation": 10.0}, "geometry": {"type": "Point", "coordinates": [75.8099904705523, 26.859548471662503]}}, {"type": "Feature", "properties": {"name": null, "Generation": null, "rotation": 10.0}, "geometry": {"type": "Point", "coordinates": [75.81010418590462, 26.859525623153772]}}, {"type": "Feature", "properties": {"name": null, "Generation": null, "rotation": 10.0}, "geometry": {"type": "Point", "coordinates": [75.81021943795088, 26.859511914046333]}}, {"type": "Feature", "properties": {"name": null, "Generation": null, "rotation": 10.0}, "geometry": {"type": "Point", "coordinates": [75.81032495760215, 26.859489065530227]}}, {"type": "Feature", "properties": {"name": null, "Generation": null, "rotation": 200.0}, "geometry": {"type": "Point", "coordinates": [75.80874933407158, 26.859914961111798]}}, {"type": "Feature", "properties": {"name": null, "Generation": null, "rotation": 100.0}, "geometry": {"type": "Point", "coordinates": [75.81117116373761, 26.860419453374316]}}, {"type": "Feature", "properties": {"name": null, "Generation": null, "rotation": 100.0}, "geometry": {"type": "Point", "coordinates": [75.8114047412181, 26.861223711749428]}}, {"type": "Feature", "properties": {"name": null, "Generation": null, "rotation": 10.0}, "geometry": {"type": "Point", "coordinates": [75.81028295463422, 26.8614448818002]}}, {"type": "Feature", "properties": {"name": null, "Generation": null, "rotation": 10.0}, "geometry": {"type": "Point", "coordinates": [75.8095893934312, 26.862561692559336]}}, {"type": "Feature", "properties": {"name": null, "Generation": null, "rotation": 10.0}, "geometry": {"type": "Point", "coordinates": [75.81096012443506, 26.863127405095153]}}, {"type": "Feature", "properties": {"name": null, "Generation": null, "rotation": 10.0}, "geometry": {"type": "Point", "coordinates": [75.81106359516104, 26.86310547122079]}}, {"type": "Feature", "properties": {"name": null, "Generation": null, "rotation": 10.0}, "geometry": {"type": "Point", "coordinates": [75.8111230139938, 26.864548528306013]}}, {"type": "Feature", "properties": {"name": null, "Generation": null, "rotation": 10.0}, "geometry": {"type": "Point", "coordinates": [75.81115169894754, 26.864649057246023]}}, {"type": "Feature", "properties": {"name": null, "Generation": null, "rotation": 140.0}, "geometry": {"type": "Point", "coordinates": [75.81281401254893, 26.864333800722445]}}, {"type": "Feature", "properties": {"name": null, "Generation": null, "rotation": 10.0}, "geometry": {"type": "Point", "coordinates": [75.81923760513176, 26.862375778074817]}}, {"type": "Feature", "properties": {"name": null, "Generation": null, "rotation": 0.0}, "geometry": {"type": "Point", "coordinates": [75.81575600181912, 26.861292493465974]}}, {"type": "Feature", "properties": {"name": null, "Generation": null, "rotation": null}, "geometry": {"type": "Point", "coordinates": [75.81967638284532, 26.859414351669603]}}, {"type": "Feature", "properties": {"name": null, "Generation": null, "rotation": null}, "geometry": {"type": "Point", "coordinates": [75.81961017328213, 26.85941811019291]}}, {"type": "Feature", "properties": {"name": null, "Generation": null, "rotation": null}, "geometry": {"type": "Point", "coordinates": [75.81914035173718, 26.86238336425328]}}, {"type": "Feature", "properties": {"name": null, "Generation": null, "rotation": 90.0}, "geometry": {"type": "Point", "coordinates": [75.82147271751343, 26.862778131536672]}}, {"type": "Feature", "properties": {"name": null, "Generation": null, "rotation": 90.0}, "geometry": {"type": "Point", "coordinates": [75.82146327712576, 26.862858137538208]}}, {"type": "Feature", "properties": {"name": null, "Generation": null, "rotation": null}, "geometry": {"type": "Point", "coordinates": [75.8178727808212, 26.86547559256119]}}, {"type": "Feature", "properties": {"name": null, "Generation": null, "rotation": null}, "geometry": {"type": "Point", "coordinates": [75.8178727808212, 26.86536743019694]}}, {"type": "Feature", "properties": {"name": null, "Generation": null, "rotation": null}, "geometry": {"type": "Point", "coordinates": [75.81352690490407, 26.86321474203577]}}, {"type": "Feature", "properties": {"name": null, "Generation": null, "rotation": null}, "geometry": {"type": "Point", "coordinates": [75.81351239732966, 26.863098263701986]}}, {"type": "Feature", "properties": {"name": null, "Generation": null, "rotation": null}, "geometry": {"type": "Point", "coordinates": [75.81569170189705, 26.865750910111945]}}, {"type": "Feature", "properties": {"name": null, "Generation": null, "rotation": null}, "geometry": {"type": "Point", "coordinates": [75.81563615464783, 26.865514161833673]}}]}